{"fetched_at":"2026-07-13T18:17:07.460Z","source":"https://celestrak.org/NORAD/elements/gp.php?NAME=NUSAT&FORMAT=JSON","constellation":"satellogic","records":[{"OBJECT_NAME":"NUSAT-26 (M SOMERVILLE)","OBJECT_ID":"2022-033AD","EPOCH":"2026-07-13T06:03:17.817984","CLASSIFICATION_TYPE":"U","MEAN_MOTION":15.43197131,"ECCENTRICITY":0.00069074,"INCLINATION":97.235,"RA_OF_ASC_NODE":273.1453,"ARG_OF_PERICENTER":143.4277,"MEAN_ANOMALY":216.7444,"EPHEMERIS_TYPE":0,"NORAD_CAT_ID":52184,"ELEMENT_SET_NO":999,"REV_AT_EPOCH":10872,"BSTAR":0.00023553308,"MEAN_MOTION_DOT":0.00010373,"MEAN_MOTION_DDOT":0},{"OBJECT_NAME":"NUSAT-33 (ALBANIA-2)","OBJECT_ID":"2023-001AQ","EPOCH":"2026-07-13T08:08:08.406816","CLASSIFICATION_TYPE":"U","MEAN_MOTION":15.28245007,"ECCENTRICITY":0.00049539,"INCLINATION":97.3062,"RA_OF_ASC_NODE":254.7444,"ARG_OF_PERICENTER":323.3315,"MEAN_ANOMALY":36.7585,"EPHEMERIS_TYPE":0,"NORAD_CAT_ID":55047,"ELEMENT_SET_NO":999,"REV_AT_EPOCH":19630,"BSTAR":0.00019500022,"MEAN_MOTION_DOT":0.00005294,"MEAN_MOTION_DDOT":0},{"OBJECT_NAME":"NUSAT-35 (WILLIAMINA)","OBJECT_ID":"2023-001AR","EPOCH":"2026-07-13T07:08:04.610112","CLASSIFICATION_TYPE":"U","MEAN_MOTION":15.35793171,"ECCENTRICITY":0.00106846,"INCLINATION":97.1841,"RA_OF_ASC_NODE":246.3929,"ARG_OF_PERICENTER":17.0236,"MEAN_ANOMALY":343.1364,"EPHEMERIS_TYPE":0,"NORAD_CAT_ID":55048,"ELEMENT_SET_NO":999,"REV_AT_EPOCH":19641,"BSTAR":0.00024659519,"MEAN_MOTION_DOT":0.00008524,"MEAN_MOTION_DDOT":0},{"OBJECT_NAME":"NUSAT-39 (TIKVAH ALPER)","OBJECT_ID":"2023-054Z","EPOCH":"2026-07-13T07:14:06.174240","CLASSIFICATION_TYPE":"U","MEAN_MOTION":15.47951389,"ECCENTRICITY":0.00021431,"INCLINATION":97.3102,"RA_OF_ASC_NODE":104.3158,"ARG_OF_PERICENTER":334.6854,"MEAN_ANOMALY":25.4291,"EPHEMERIS_TYPE":0,"NORAD_CAT_ID":56201,"ELEMENT_SET_NO":999,"REV_AT_EPOCH":18249,"BSTAR":0.00034757482,"MEAN_MOTION_DOT":0.00018059,"MEAN_MOTION_DDOT":0},{"OBJECT_NAME":"NUSAT-38 (MARIA AGNESI)","OBJECT_ID":"2023-054AA","EPOCH":"2026-07-13T07:12:13.177728","CLASSIFICATION_TYPE":"U","MEAN_MOTION":15.51119928,"ECCENTRICITY":0.00090367,"INCLINATION":97.304,"RA_OF_ASC_NODE":105.0425,"ARG_OF_PERICENTER":335.5534,"MEAN_ANOMALY":24.5288,"EPHEMERIS_TYPE":0,"NORAD_CAT_ID":56202,"ELEMENT_SET_NO":999,"REV_AT_EPOCH":18255,"BSTAR":0.0003524091,"MEAN_MOTION_DOT":0.00020507,"MEAN_MOTION_DDOT":0},{"OBJECT_NAME":"NUSAT-37 (JOAN CLARKE)","OBJECT_ID":"2023-054AB","EPOCH":"2026-07-13T07:18:11.058624","CLASSIFICATION_TYPE":"U","MEAN_MOTION":15.5949162,"ECCENTRICITY":0.00075859,"INCLINATION":97.2613,"RA_OF_ASC_NODE":101.9133,"ARG_OF_PERICENTER":149.262,"MEAN_ANOMALY":210.9083,"EPHEMERIS_TYPE":0,"NORAD_CAT_ID":56203,"ELEMENT_SET_NO":999,"REV_AT_EPOCH":18271,"BSTAR":0.00040174436,"MEAN_MOTION_DOT":0.00031836,"MEAN_MOTION_DDOT":0},{"OBJECT_NAME":"NUSAT-40 (C SHOEMAKER)","OBJECT_ID":"2023-084M","EPOCH":"2026-07-13T03:16:44.145120","CLASSIFICATION_TYPE":"U","MEAN_MOTION":15.81999672,"ECCENTRICITY":0.00041451,"INCLINATION":97.4855,"RA_OF_ASC_NODE":342.8176,"ARG_OF_PERICENTER":190.4685,"MEAN_ANOMALY":169.6498,"EPHEMERIS_TYPE":0,"NORAD_CAT_ID":56943,"ELEMENT_SET_NO":999,"REV_AT_EPOCH":17290,"BSTAR":0.00049612334,"MEAN_MOTION_DOT":0.00101417,"MEAN_MOTION_DDOT":0},{"OBJECT_NAME":"NUSAT-41 (C PAYNE-G)","OBJECT_ID":"2023-084N","EPOCH":"2026-07-13T06:51:46.715040","CLASSIFICATION_TYPE":"U","MEAN_MOTION":15.30128335,"ECCENTRICITY":0.00063138,"INCLINATION":97.5543,"RA_OF_ASC_NODE":331.422,"ARG_OF_PERICENTER":218.4732,"MEAN_ANOMALY":141.6059,"EPHEMERIS_TYPE":0,"NORAD_CAT_ID":56944,"ELEMENT_SET_NO":999,"REV_AT_EPOCH":17177,"BSTAR":0.00022113973,"MEAN_MOTION_DOT":0.00006371,"MEAN_MOTION_DDOT":0},{"OBJECT_NAME":"NUSAT-42 (M WONENBURGER)","OBJECT_ID":"2023-084AL","EPOCH":"2026-07-13T07:34:47.630784","CLASSIFICATION_TYPE":"U","MEAN_MOTION":15.46456231,"ECCENTRICITY":0.00066733,"INCLINATION":97.574,"RA_OF_ASC_NODE":339.5483,"ARG_OF_PERICENTER":151.9698,"MEAN_ANOMALY":208.1912,"EPHEMERIS_TYPE":0,"NORAD_CAT_ID":56966,"ELEMENT_SET_NO":999,"REV_AT_EPOCH":17211,"BSTAR":0.00027750519,"MEAN_MOTION_DOT":0.00013672,"MEAN_MOTION_DDOT":0},{"OBJECT_NAME":"NUSAT-44 (MARIA MITCHELL)","OBJECT_ID":"2024-043AA","EPOCH":"2026-07-13T07:21:46.907424","CLASSIFICATION_TYPE":"U","MEAN_MOTION":15.29825965,"ECCENTRICITY":0.00063724,"INCLINATION":97.5475,"RA_OF_ASC_NODE":334.9693,"ARG_OF_PERICENTER":136.9513,"MEAN_ANOMALY":223.2226,"EPHEMERIS_TYPE":0,"NORAD_CAT_ID":59122,"ELEMENT_SET_NO":999,"REV_AT_EPOCH":13126,"BSTAR":0.00021031199,"MEAN_MOTION_DOT":0.00005999,"MEAN_MOTION_DDOT":0},{"OBJECT_NAME":"NUSAT-50 (NANCY ROMAN)","OBJECT_ID":"2024-149AB","EPOCH":"2026-07-12T19:18:36.372960","CLASSIFICATION_TYPE":"U","MEAN_MOTION":15.30294248,"ECCENTRICITY":0.00047881,"INCLINATION":97.3788,"RA_OF_ASC_NODE":274.888,"ARG_OF_PERICENTER":107.2832,"MEAN_ANOMALY":252.8933,"EPHEMERIS_TYPE":0,"NORAD_CAT_ID":60493,"ELEMENT_SET_NO":999,"REV_AT_EPOCH":10604,"BSTAR":0.00021004157,"MEAN_MOTION_DOT":0.0000608,"MEAN_MOTION_DDOT":0},{"OBJECT_NAME":"NUSAT-48 (HENRIETTA LEAVITT)","OBJECT_ID":"2024-149AG","EPOCH":"2026-07-13T06:01:49.859328","CLASSIFICATION_TYPE":"U","MEAN_MOTION":15.30254178,"ECCENTRICITY":0.00046089,"INCLINATION":97.3924,"RA_OF_ASC_NODE":275.6202,"ARG_OF_PERICENTER":164.0104,"MEAN_ANOMALY":196.1283,"EPHEMERIS_TYPE":0,"NORAD_CAT_ID":60498,"ELEMENT_SET_NO":999,"REV_AT_EPOCH":10612,"BSTAR":0.00018428697,"MEAN_MOTION_DOT":0.00005318,"MEAN_MOTION_DDOT":0},{"OBJECT_NAME":"NUSAT-49 (KLARA DAN VON NEUMANN)","OBJECT_ID":"2024-149AJ","EPOCH":"2026-07-13T00:45:25.498368","CLASSIFICATION_TYPE":"U","MEAN_MOTION":15.30361086,"ECCENTRICITY":0.00023283,"INCLINATION":97.3781,"RA_OF_ASC_NODE":275.1455,"ARG_OF_PERICENTER":168.9245,"MEAN_ANOMALY":191.2048,"EPHEMERIS_TYPE":0,"NORAD_CAT_ID":60500,"ELEMENT_SET_NO":999,"REV_AT_EPOCH":10608,"BSTAR":0.00020591147,"MEAN_MOTION_DOT":0.0000597,"MEAN_MOTION_DDOT":0},{"OBJECT_NAME":"NUSAT-45 (UZMASAT-1)","OBJECT_ID":"2025-009AH","EPOCH":"2026-07-13T03:37:56.114688","CLASSIFICATION_TYPE":"U","MEAN_MOTION":15.30361115,"ECCENTRICITY":0.00016374,"INCLINATION":97.3596,"RA_OF_ASC_NODE":275.1181,"ARG_OF_PERICENTER":183.9331,"MEAN_ANOMALY":176.1898,"EPHEMERIS_TYPE":0,"NORAD_CAT_ID":62640,"ELEMENT_SET_NO":999,"REV_AT_EPOCH":8289,"BSTAR":0.00020141576,"MEAN_MOTION_DOT":0.00005838,"MEAN_MOTION_DDOT":0},{"OBJECT_NAME":"NUSAT-52","OBJECT_ID":"2025-276AC","EPOCH":"2026-07-13T00:31:04.966464","CLASSIFICATION_TYPE":"U","MEAN_MOTION":15.20025037,"ECCENTRICITY":0.00016255,"INCLINATION":97.4204,"RA_OF_ASC_NODE":267.1428,"ARG_OF_PERICENTER":294.2922,"MEAN_ANOMALY":65.8143,"EPHEMERIS_TYPE":0,"NORAD_CAT_ID":66692,"ELEMENT_SET_NO":999,"REV_AT_EPOCH":3434,"BSTAR":0.00016372355,"MEAN_MOTION_DOT":0.0000346,"MEAN_MOTION_DDOT":0},{"OBJECT_NAME":"NUSAT-51 (YVONNE BRILL)","OBJECT_ID":"2025-276CC","EPOCH":"2026-07-12T18:14:48.337152","CLASSIFICATION_TYPE":"U","MEAN_MOTION":15.20549999,"ECCENTRICITY":0.00016238,"INCLINATION":97.4209,"RA_OF_ASC_NODE":267.0267,"ARG_OF_PERICENTER":251.6131,"MEAN_ANOMALY":108.4928,"EPHEMERIS_TYPE":0,"NORAD_CAT_ID":66740,"ELEMENT_SET_NO":999,"REV_AT_EPOCH":3431,"BSTAR":0.00018728026,"MEAN_MOTION_DOT":0.0000403,"MEAN_MOTION_DDOT":0}]}
