NUSAT-26 (M SOMERVILLE) 
1 52184U 22033AD  26194.25228956  .00010373  00000+0  23553-3 0  9995
2 52184  97.2350 273.1453 0006907 143.4277 216.7444 15.43197131108724
NUSAT-33 (ALBANIA-2)    
1 55047U 23001AQ  26194.33898619  .00005294  00000+0  19500-3 0  9993
2 55047  97.3062 254.7444 0004953 323.3315  36.7585 15.28245007196308
NUSAT-35 (WILLIAMINA)   
1 55048U 23001AR  26194.29727558  .00008524  00000+0  24660-3 0  9994
2 55048  97.1841 246.3929 0010684  17.0236 343.1364 15.35793171196414
NUSAT-39 (TIKVAH ALPER) 
1 56201U 23054Z   26194.30146035  .00018059  00000+0  34757-3 0  9993
2 56201  97.3102 104.3158 0002143 334.6854  25.4291 15.47951389182492
NUSAT-38 (MARIA AGNESI) 
1 56202U 23054AA  26194.30015252  .00020507  00000+0  35241-3 0  9990
2 56202  97.3040 105.0425 0009036 335.5534  24.5288 15.51119928182555
NUSAT-37 (JOAN CLARKE)  
1 56203U 23054AB  26194.30429466  .00031836  00000+0  40174-3 0  9995
2 56203  97.2613 101.9133 0007585 149.2620 210.9083 15.59491620182717
NUSAT-40 (C SHOEMAKER)  
1 56943U 23084M   26194.13662205  .00101417  00000+0  49612-3 0  9999
2 56943  97.4855 342.8176 0004145 190.4685 169.6498 15.81999672172904
NUSAT-41 (C PAYNE-G)    
1 56944U 23084N   26194.28595735  .00006371  00000+0  22114-3 0  9990
2 56944  97.5543 331.4220 0006313 218.4732 141.6059 15.30128335171778
NUSAT-42 (M WONENBURGER)
1 56966U 23084AL  26194.31582906  .00013672  00000+0  27751-3 0  9998
2 56966  97.5740 339.5483 0006673 151.9698 208.1912 15.46456231172114
NUSAT-44 (MARIA MITCHE*)
1 59122U 24043AA  26194.30679291  .00005999  00000+0  21031-3 0  9992
2 59122  97.5475 334.9693 0006372 136.9513 223.2226 15.29825965131265
NUSAT-50 (NANCY ROMAN)  
1 60493U 24149AB  26193.80458765  .00006080  00000+0  21004-3 0  9999
2 60493  97.3788 274.8880 0004788 107.2832 252.8933 15.30294248106044
NUSAT-48 (HENRIETTA LE*)
1 60498U 24149AG  26194.25127152  .00005318  00000+0  18429-3 0  9997
2 60498  97.3924 275.6202 0004608 164.0104 196.1283 15.30254178106127
NUSAT-49 (KLARA DAN VO*)
1 60500U 24149AJ  26194.03154512  .00005970  00000+0  20591-3 0  9994
2 60500  97.3781 275.1455 0002328 168.9245 191.2048 15.30361086106080
NUSAT-45 (UZMASAT-1)    
1 62640U 25009AH  26194.15134392  .00005838  00000+0  20142-3 0  9999
2 62640  97.3596 275.1181 0001637 183.9331 176.1898 15.30361115 82892
NUSAT-52                
1 66692U 25276AC  26194.02158526  .00003460  00000+0  16372-3 0  9996
2 66692  97.4204 267.1428 0001625 294.2922  65.8143 15.20025037 34347
NUSAT-51 (YVONNE BRILL) 
1 66740U 25276CC  26193.76028168  .00004030  00000+0  18728-3 0  9999
2 66740  97.4209 267.0267 0001623 251.6131 108.4928 15.20549999 34313
